SBSS (USA 216)          
1 37168U 10048A   26068.88624904  .00004946  00000+0  24191-3 0  9993
2 37168  97.7474 312.3885 0082264 184.8326 306.5835 15.15724210837421
STARLINK-32417          
1 61673U 24193N   26068.32839898  .00000679  00000+0  35055-4 0  9997
2 61673  53.1609  92.5184 0001273  89.2474 270.8673 15.30191630 76471
